H-2A R/B                
1 28932U 06002B   26183.87308773  .00007917  00000+0  37769-3 0  9993
2 28932  98.2582 341.1238 0050059 208.0583 151.7949 15.18279185111902
RESURS-DK 1             
1 29228U 06021A   26183.76762882  .00002578  00000+0  15058-3 0  9991
2 29228  69.9340 299.2211 0006699 284.6329  75.4094 15.13281648104931
CZ-4B R/B               
1 29507U 06046C   26183.54751343  .00004964  00000+0  24527-3 0  9996
2 29507  97.5436 228.1071 0031427 226.7926 133.0682 15.17896573 77460
CZ-2C R/B               
1 31114U 07010B   26183.84036308  .00000108  00000+0  68733-4 0  9999
2 31114  98.4112 291.4267 0058142 320.3520  39.3413 14.20279629996068
COSMO-SKYMED 1          
1 31598U 07023A   26184.71017316  .00002312  00000+0  20523-3 0  9997
2 31598  97.8852  16.7056 0001244  83.5603 276.5760 14.97181568 32264
COSMOS 2428             
1 31792U 07029A   26183.78959679  .00000082  00000+0  69688-4 0  9990
2 31792  70.9378 321.7172 0007141 105.0826 255.1086 14.12928946980354
SL-16 R/B               
1 31793U 07029B   26183.75380137 -.00000234  00000+0 -96398-4 0  9994
2 31793  70.9765 290.5058 0002377 261.4453 260.0962 14.14852771981645
KORONAS-FOTON           
1 33504U 09003A   26183.87272232  .00014325  00000+0  29140-3 0  9993
2 33504  82.4298 155.8926 0012655  99.6569 260.6110 15.46056137963528
CZ-2C R/B               
1 37731U 11030B   26183.84399311  .00001474  00000+0  19059-3 0  9996
2 37731  97.8663 138.9484 0051698 337.1718  75.8034 14.81511046807146
H-2A R/B                
1 38341U 12025E   26183.87756930  .00003678  00000+0  33003-3 0  9999
2 38341  98.4834 160.3175 0042379 296.5170  63.1707 14.95794454765436
SHIJIAN-16 (SJ-16)      
1 39358U 13057A   26184.66093796  .00001223  00000+0  12130-3 0  9998
2 39358  74.9738 325.4800 0016263 192.2928 167.7867 14.92639277688803
SL-4 R/B                
1 39679U 14021B   26183.87590063  .00012798  00000+0  26102-3 0  9990
2 39679  51.6052 133.8949 0090452 163.2563 197.1442 15.42263865674038
ALOS-2                  
1 39766U 14029A   26184.64158801  .00001538  00000+0  21273-3 0  9995
2 39766  97.9233 281.5701 0001648  89.5622 270.5778 14.79475228654012
YAOGAN-29               
1 41038U 15069A   26184.63995344  .00000885  00000+0  11530-3 0  9994
2 41038  98.0016 213.2984 0001677  28.8098 331.3208 14.83099919573061
ASTRO-H (HITOMI)        
1 41337U 16012A   26183.76108712  .00003229  00000+0  18505-3 0  9997
2 41337  31.0004 333.6033 0009593  49.4068 310.7404 15.10584580569642
HXMT (HUIYAN)           
1 42758U 17034A   26184.64417042  .00006694  00000+0  32449-3 0  9999
2 42758  43.0143  91.3968 0032781 250.4727 109.2580 15.18606422500169
SAOCOM 1A               
1 43641U 18076A   26184.67612571  .00000636  00000+0  86410-4 0  9993
2 43641  97.8879  11.1843 0001526  80.9296 279.2090 14.82160905418541
H-2A R/B                
1 43682U 18084L   26183.73226246  .00021852  00000+0  44927-3 0  9992
2 43682  98.8551  66.0241 0021750 346.2519  13.8130 15.45765966423521
SAOCOM 1B               
1 46265U 20059A   26184.63982992  .00000048  00000+0  12647-4 0  9993
2 46265  97.8884  10.2442 0001587  79.7812 280.3580 14.82150655315920
CSS (TIANHE)            
1 48274U 21035A   26184.22810215  .00007882  00000+0  10678-3 0  9997
2 48274  41.4672 224.3616 0002880 262.1202  97.9309 15.57904594296214
COSMOS 2550             
1 48865U 21056A   26184.13028056  .00005961  00000+0  18656-3 0  9990
2 48865  67.1430  51.6786 0008372 268.3779  91.6416 15.33883607281168
CZ-2C R/B               
1 52794U 22058K   26183.71959944  .00038551  00000+0  41000-3 0  9991
2 52794  50.1859  82.6344 0031440 331.2702  28.6539 15.62969822228076
CZ-2C R/B               
1 54039U 22132E   26183.74388297  .00072758  00000+0  51923-3 0  9990
2 54039  97.2893 191.4824 0012300  32.6928 327.5095 15.73474922208393
GSLV R/B                
1 54149U 22138AN  26183.82341712  .00002933  00000+0  24894-3 0  9993
2 54149  87.3814 127.7337 0024182  92.5031 267.8970 14.97332034201157
XRISM                   
1 57800U 23137A   26183.63281826  .00005244  00000+0  28741-3 0  9991
2 57800  31.0015 259.5443 0007762 119.7608 240.3804 15.12598210155206
ACS3                    
1 59588U 24077B   26183.70430955  .00036756  00000+0  26027-1 0  9992
2 59588  97.1705  99.0432 0108112  49.9893 311.0702 13.94758402110209
CZ-8A R/B               
1 66004U 25231K   26183.84362340 -.00000005  00000+0  56635-4 0  9993
2 66004  50.0053 332.7072 0116481 279.1280  79.6472 14.30159318 37184
SZ-21 MODULE            
1 66515U 25246C   26183.79391944  .00043719  00000+0  25308-3 0  9992
2 66515  41.4699 210.0293 0005303 125.3389 234.7952 15.77749354 36202
